STARLINK-2103           
1 47383U 21005AL  26068.08255076  .00001146  00000+0  49613-4 0  9996
2 47383  53.1613  17.1416 0001288  95.4629 264.6519 15.31044749283622
TOMORROW-S2             
1 60485U 24149T   26068.75188364  .00008133  00000+0  27683-3 0  9990
2 60485  97.3857 150.0385 0001648 234.3331 125.7757 15.30674935 86869
